OBJECT_NAME,OBJECT_ID,EPOCH,MEAN_MOTION,ECCENTRICITY,INCLINATION,RA_OF_ASC_NODE,ARG_OF_PERICENTER,MEAN_ANOMALY,EPHEMERIS_TYPE,CLASSIFICATION_TYPE,NORAD_CAT_ID,ELEMENT_SET_NO,REV_AT_EPOCH,BSTAR,MEAN_MOTION_DOT,MEAN_MOTION_DDOT
IONOSFERA-M 2,2024-199B,2026-06-17T13:54:47.451168,14.22757642,.00010283,98.7171,41.6584,39.3909,320.7344,0,U,61736,999,13088,.41240095E-4,.48E-6,0
PRSC-EO1,2025-012A,2026-06-17T15:40:38.400672,15.17614185,.00048201,97.4224,241.1041,250.2509,109.8205,0,U,62725,999,7826,.25134516E-3,.4989E-4,0
BIOMASS,2025-090A,2026-06-17T12:15:30.885696,14.67537521,.00013856,98.0740,355.8232,95.1769,264.9594,0,U,63772,999,6073,.86213135E-4,.441E-5,0
GOSAT-GW (IBUKI GW),2025-141A,2026-06-17T14:22:54.233184,14.67553255,.00014569,98.0569,105.9098,82.2646,277.8724,0,U,64694,999,5190,.14038028E-4,.32E-6,0
IONOSFERA-M 3,2025-155A,2026-06-17T14:20:46.827744,14.21486496,.00010478,98.6024,130.4924,155.8351,204.2876,0,U,64876,999,4646,.32085619E-4,.27E-6,0
IONOSFERA-M 4,2025-155B,2026-06-17T13:29:35.509920,14.21488687,.00010622,98.6030,130.3752,119.9966,240.1318,0,U,64877,999,4645,.36561902E-4,.37E-6,0
MICROCARB,2025-156A,2026-06-17T03:35:38.227200,14.72325432,.0014958,97.9832,245.2878,272.3692,87.5803,0,U,64899,999,4796,.72027992E-4,.406E-5,0
CO3D 3,2025-156B,2026-06-17T12:24:07.014240,15.20196891,.00014715,97.4332,247.2052,129.2187,230.9179,0,U,64900,999,4958,.16114832E-3,.3422E-4,0
CO3D 4,2025-156C,2026-06-17T12:24:20.026080,15.20201567,.00001153,97.4333,247.2050,0.8691,359.2545,0,U,64901,999,4958,.13867511E-4,.233E-5,0
CO3D 2,2025-156D,2026-06-17T13:11:06.404352,15.20199335,.00014933,97.4329,247.1361,107.2551,252.8848,0,U,64902,999,4958,.17029663E-3,.362E-4,0
CO3D 1,2025-156E,2026-06-17T13:11:19.552704,15.20199212,.00012956,97.4329,247.1363,110.8412,249.2962,0,U,64903,999,4958,.20224778E-3,.4313E-4,0
PRSC-S1,2025-164A,2026-06-17T14:17:25.533024,15.06461509,.00065295,41.1310,285.5136,346.4826,13.5812,0,U,65055,999,4849,.26236416E-3,.3765E-4,0
SENTINEL-6B,2025-264A,2026-06-17T07:40:53.126112,12.80929950,.00080162,66.0395,134.9024,269.1832,90.8264,0,U,66514,999,2718,-.34173805E-4,-.69E-6,0
CAS500-3,2025-274F,2026-06-17T08:23:34.453248,14.88321291,.00067616,97.7446,96.3970,109.7092,250.4855,0,U,66655,999,3017,.11652024E-3,.1024E-4,0
CSG-3,2026-001A,2026-06-17T11:15:28.581120,14.82153956,.00013792,97.8887,352.0668,94.6781,265.4590,0,U,67304,999,2450,.35797422E-4,.233E-5,0
PRSC-E03,2026-092A,2026-06-17T06:06:30.452832,15.06668590,.00037073,38.0007,89.2832,4.8675,355.2123,0,U,68835,999,796,.14635225E-3,.2104E-4,0
CAS500-2,2026-100AK,2026-06-17T14:42:28.154304,15.20594244,.00106688,97.4074,66.4604,33.4042,326.7864,0,U,69013,999,687,.23554401E-3,.51E-4,0
