IONOSFERA-M 2           
1 61736U 24199B   26168.57971587  .00000048  00000+0  41240-4 0  9996
2 61736  98.7171  41.6584 0001028  39.3909 320.7344 14.22757642130883
PRSC-EO1                
1 62725U 25012A   26168.65322223  .00004989  00000+0  25135-3 0  9998
2 62725  97.4224 241.1041 0004820 250.2509 109.8205 15.17614185 78269
BIOMASS                 
1 63772U 25090A   26168.51077414  .00000441  00000+0  86213-4 0  9995
2 63772  98.0740 355.8232 0001385  95.1769 264.9594 14.67537521 60733
GOSAT-GW (IBUKI GW)     
1 64694U 25141A   26168.59923881  .00000032  00000+0  14038-4 0  9994
2 64694  98.0569 105.9098 0001456  82.2646 277.8724 14.67553255 51909
IONOSFERA-M 3           
1 64876U 25155A   26168.59776421  .00000027  00000+0  32086-4 0  9994
2 64876  98.6024 130.4924 0001047 155.8351 204.2876 14.21486496 46469
IONOSFERA-M 4           
1 64877U 25155B   26168.56221655  .00000037  00000+0  36562-4 0  9990
2 64877  98.6030 130.3752 0001062 119.9966 240.1318 14.21488687 46458
MICROCARB               
1 64899U 25156A   26168.14974800  .00000406  00000+0  72028-4 0  9993
2 64899  97.9832 245.2878 0014958 272.3692  87.5803 14.72325432 47960
CO3D 3                  
1 64900U 25156B   26168.51674785  .00003422  00000+0  16115-3 0  9991
2 64900  97.4332 247.2052 0001471 129.2187 230.9179 15.20196891 49583
CO3D 4                  
1 64901U 25156C   26168.51689845  .00000233  00000+0  13868-4 0  9995
2 64901  97.4333 247.2050 0000115   0.8691 359.2545 15.20201567 49580
CO3D 2                  
1 64902U 25156D   26168.54937968  .00003620  00000+0  17030-3 0  9998
2 64902  97.4329 247.1361 0001493 107.2551 252.8848 15.20199335 49580
CO3D 1                  
1 64903U 25156E   26168.54953186  .00004313  00000+0  20225-3 0  9999
2 64903  97.4329 247.1363 0001295 110.8412 249.2962 15.20199212 49580
PRSC-S1                 
1 65055U 25164A   26168.59543441  .00003765  00000+0  26236-3 0  9999
2 65055  41.1310 285.5136 0006529 346.4826  13.5812 15.06461509 48490
SENTINEL-6B             
1 66514U 25264A   26168.32005933 -.00000069  00000+0 -34174-4 0  9998
2 66514  66.0395 134.9024 0008016 269.1832  90.8264 12.80929950 27184
CAS500-3                
1 66655U 25274F   26168.34970432  .00001024  00000+0  11652-3 0  9997
2 66655  97.7446  96.3970 0006761 109.7092 250.4855 14.88321291 30178
CSG-3                   
1 67304U 26001A   26168.46908080  .00000233  00000+0  35797-4 0  9999
2 67304  97.8887 352.0668 0001379  94.6781 265.4590 14.82153956 24500
PRSC-E03                
1 68835U 26092A   26168.25451913  .00002104  00000+0  14635-3 0  9990
2 68835  38.0007  89.2832 0003707   4.8675 355.2123 15.06668590  7968
CAS500-2                
1 69013U 26100AK  26168.61282586  .00005100  00000+0  23554-3 0  9996
2 69013  97.4074  66.4604 0010668  33.4042 326.7864 15.20594244  6878
